MOLNIYA 2-9             
1 07276U 74026A   22349.14624434  .00000192  00000+0  00000+0 0  9999
2 07276  64.2815 202.2926 6413107 278.9523  18.3216  2.45096333253816
MOLNIYA 2-10            
1 07376U 74056A   22350.39284194  .00001182  00000+0  00000+0 0  9997
2 07376  64.3847  75.8091 6767823 285.2426  13.7548  2.01156260354019
MOLNIYA 1-S             
1 07392U 74060A   22350.81345118  .00000163  00000+0  00000+0 0  9999
2 07392   4.6568 280.1616 0010432 217.1454 286.2013  1.00238699121352
MOLNIYA 1-29            
1 07780U 75036A   22348.62464524  .00000088  00000+0 -98356-1 0  9993
2 07780  63.4153 195.5589 6824509 287.9888  12.6690  2.00592779349238
MOLNIYA 2-14            
1 08195U 75081A   22348.80037895  .00000732  00000+0  00000+0 0  9993
2 08195  63.3864 168.8935 6745198 292.2371  11.9645  2.02055053346530
MOLNIYA 1-32            
1 08601U 76006A   22349.01286806  .00000951  00000+0  00000+0 0  9998
2 08601  63.5288 273.0082 7174251 283.8885  11.6377  2.00060620 56271
MOLNIYA 1-36            
1 09880U 77021A   22349.15610796 -.00001329  00000+0  00000+0 0  9991
2 09880  63.4841 245.2360 7091192 289.5401  10.8173  2.00695128232991
MOLNIYA 3-8             
1 10455U 77105A   22349.92112934 -.00001610  00000+0 -13524-2 0  9992
2 10455  63.4345 330.3967 7338841 282.5327  10.8033  2.00593696330782
MOLNIYA 1-40            
1 10925U 78055A   22351.10599039 -.00000768  00000+0  00000+0 0  9991
2 10925  63.5361  22.0473 7272055 280.7315  11.6500  2.00692890326375
MOLNIYA 3-10            
1 11057U 78095A   22350.11557078  .00000107  00000+0  79240-3 0  9991
2 11057  63.2485 332.5761 5779373 311.7177  11.4943  4.09868353391178
MOLNIYA 3-13            
1 11896U 80063A   22348.88552693 -.00000073  00000+0  00000+0 0  9996
2 11896  62.7562 114.0436 7147441 276.5751  13.7039  2.00636954310715
MOLNIYA 1-49            
1 12156U 81009A   22347.57767371  .00000584  00000+0 -38241-3 0  9992
2 12156  61.6943 137.7352 7323816 265.1191  16.0357  2.05704179225173
MOLNIYA 1-52            
1 13012U 81123A   22346.87076179  .00001575  00000+0  12797-1 0  9998
2 13012  61.6367 253.0606 7205916 257.3016  20.4369  2.00539486300154
MOLNIYA 1-53            
1 13070U 82015A   22350.52858570 -.00000920  00000+0 -14880-1 0  9993
2 13070  62.5570 192.0672 6982607 283.0850  12.9978  2.00457008298910
MOLNIYA 3-20            
1 13875U 83015A   22349.01896538  .00000807  00000+0  15981-2 0  9991
2 13875  62.6304 324.0750 7387703 259.8448  17.5025  2.00829307227331
MOLNIYA 1-56            
1 13890U 83019A   22350.25388585  .00000339  00000+0  24885-3 0  9992
2 13890  62.9158 348.7183 7448977 265.6727  14.7424  2.00027285290233
MOLNIYA 1-63            
1 15429U 84124A   22347.42749956 -.00000764  00000+0  00000+0 0  9990
2 15429  63.7465 150.4349 6700892 258.3515  19.0531  2.00799040278345
MOLNIYA 3-24            
1 15738U 85040A   22349.28304361 -.00000125  00000+0  12165-3 0  9994
2 15738  63.5961  48.6906 6857438 247.2323  30.1416  2.55629898308496
MOLNIYA 3-27            
1 16393U 85117A   22347.13678399 -.00000119  00000+0  00000+0 0  9998
2 16393  64.3072  57.8292 7044533 247.3221  27.7575  2.12398194277970
MOLNIYA 1-69            
1 17078U 86089A   22349.26020503  .00000876  00000+0  00000+0 0  9991
2 17078  64.0050 169.2758 6694054 256.6478  26.0194  2.00728284264456
MOLNIYA 3-31            
1 17328U 87008A   22349.37709816  .00000107  00000+0  00000+0 0  9991
2 17328  63.6780 106.6626 7125920 253.3178  23.2150  2.00683854259527
MOLNIYA 1-71            
1 18946U 88017A   22350.34613790  .00000019  00000+0  00000+0 0  9995
2 18946  63.3548  99.3273 7238064 256.3242  20.4874  2.00576236254744
MOLNIYA 1-75            
1 19807U 89014A   22349.58554395 -.00000166  00000+0  00000+0 0  9993
2 19807  63.9791 264.9404 6795307 266.0993  20.3699  2.00558829247633
MOLNIYA 1-80            
1 21118U 91012A   22350.36697976 -.00000932  00000+0  00000+0 0  9994
2 21118  65.1927 313.2739 6745121 275.2736  17.0736  2.05245552234723
MOLNIYA 3-40            
1 21196U 91022A   22350.10334746  .00001065  00000+0  00000+0 0  9993
2 21196  65.0788 306.9901 6772610 272.1377  18.0356  2.03000386233374
MOLNIYA 1-81            
1 21426U 91043A   22345.47879046 -.00000197  00000+0  00000+0 0  9999
2 21426  64.0210 321.6463 7072117 266.0330  17.8513  2.00623867230712
MOLNIYA 3-41            
1 21706U 91065A   22350.44022563 -.00000851  00000+0  00000+0 0  9998
2 21706  64.0922 145.9022 6915220 254.1988  25.0367  2.04360440230580
MOLNIYA 3-42            
1 22178U 92067A   22348.89395955  .00000221  00000+0  00000+0 0  9999
2 22178  64.6733 197.0485 6419004 264.0856  24.7897  2.20434512228495
MOLNIYA 1-86            
1 22671U 93035A   22350.85697389  .00000117  00000+0  99721-4 0  9995
2 22671  63.0848 130.7498 4861101  10.0437 356.9310  5.62762931362567
MOLNIYA 1-87            
1 22949U 93079A   22350.44634797  .00001278  00000+0  00000+0 0  9996
2 22949  64.1693  71.2787 6912960 283.2056  13.3937  2.02855784 78628
MOLNIYA 1-88            
1 23420U 94081A   22349.96145979  .00000138  00000+0  00000+0 0  9993
2 23420  64.2817 155.7870 5795407 279.6568  22.7956  3.34495346119771
MOLNIYA 3-47            
1 23642U 95042A   22347.52059746 -.00000128  00000+0  00000+0 0  9993
2 23642  64.2983  53.1649 6955055 283.4856  13.0101  2.01925114200632
MOLNIYA 1-90            
1 24960U 97054A   22350.40285715  .00000133  00000+0  36635-2 0  9991
2 24960  63.6891 121.5819 6097754 297.3670  14.1608  3.18687464213806
MOLNIYA 1-91            
1 25485U 98054A   22350.27394230  .00000177  00000+0  22925-2 0  9998
2 25485  63.1123 121.9615 6771542 291.8582  12.7601  2.36442113182682
MOLNIYA 3-50            
1 25847U 99036A   22347.92926287 -.00000421  00000+0 -28525-2 0  9998
2 25847  63.2876 307.0897 7331056 282.5011  10.9232  2.00659377171711
